ONEWEB-0379             
1 49305U 21090AC  25183.88557989 -.00000130  00000+0 -38386-3 0  9997
2 49305  87.9039 359.2004 0001828  96.1685 263.9653 13.14502536182977
ONEWEB-0380             
1 49306U 21090AD  25183.82134797  .00000069  00000+0  14007-3 0  9993
2 49306  87.9215  14.4277 0001695  86.1063 274.0263 13.19725262180344
ONEWEB-0381             
1 49307U 21090AE  25183.91951440  .00000062  00000+0  12043-3 0  9997
2 49307  87.9272 344.0081 0001562  95.1214 265.0097 13.20773121183723
ONEWEB-0382             
1 49308U 21090AF  25183.83111790 -.00000034  00000+0 -11478-3 0  9997
2 49308  87.9270 344.0199 0001555 102.2735 257.8573 13.20772850183706
ONEWEB-0383             
1 49309U 21090AG  25183.87923324  .00000024  00000+0  30657-4 0  9994
2 49309  87.9036 359.1818 0001803  98.2842 261.8492 13.14502460181705
ONEWEB-0384             
1 49310U 21090AH  25183.82704990  .00000020  00000+0  16553-4 0  9992
2 49310  87.9273 344.0377 0001542 110.1048 250.0252 13.20786347183717
ONEWEB-0385             
1 49311U 21090AJ  25183.89898467 -.00000049  00000+0 -15242-3 0  9999
2 49311  87.9266 344.0242 0001740  97.7837 262.3494 13.20772058183692
ONEWEB-0386             
1 49312U 21090AK  25183.91635119 -.00000023  00000+0 -87599-4 0  9993
2 49312  87.9264 343.9901 0001662 103.1934 256.9385 13.20771453183713
